NORAD_CAT_ID,OBJECT_NAME,OBJECT_TYPE,EPOCH,MEAN_MOTION,ECCENTRICITY,INCLINATION,RA_OF_ASC_NODE,ARG_OF_PERICENTER,MEAN_ANOMALY,BSTAR,MEAN_MOTION_DOT,MEAN_MOTION_DDOT,TLE_LINE0,TLE_LINE1,TLE_LINE2,SEMIMAJOR_AXIS,PERIOD,APOGEE,PERIGEE,DECAYED
54059.0,STARLINK-5173,PAYLOAD,2023-01-30 06:21:09,15.08847986,8.93e-05,53.2191,36.7996,69.6615,290.4473,-7.5907e-05,-1.496e-05,0.0,0 STARLINK-5173,1 54059U 22136J   23030.26468776 -.00001496  00000-0 -75907-4 0  9995,2 54059  53.2191  36.7996 0000893  69.6615 290.4473 15.08847986 16067,6917.856,95.437,540.339,539.103,0.0
54059.0,STARLINK-5173,PAYLOAD,2023-01-30 09:31:55,15.0883639,9.62e-05,53.2191,36.2049,89.8793,270.231,0.00011506,1.544e-05,0.0,0 STARLINK-5173,1 54059U 22136J   23030.39717174  .00001544  00000-0  11506-3 0  9994,2 54059  53.2191  36.2049 0000962  89.8793 270.2310 15.08836390 16084,6917.891,95.438,540.422,539.091,0.0
54059.0,STARLINK-5173,PAYLOAD,2023-01-31 09:22:41,15.08847823,0.0001036,53.219,31.744,92.1154,267.9957,8.8567e-05,1.122e-05,0.0,0 STARLINK-5173,1 54059U 22136J   23031.39076385  .00001122  00000-0  88567-4 0  9991,2 54059  53.2190  31.7440 0001036  92.1154 267.9957 15.08847823 16239,6917.856,95.437,540.438,539.005,0.0
54059.0,STARLINK-5173,PAYLOAD,2023-02-01 06:02:42,15.0884382,0.0001102,53.2191,27.8788,79.1154,280.9962,0.00010651,1.408e-05,0.0,0 STARLINK-5173,1 54059U 22136J   23032.25188557  .00001408  00000-0  10651-3 0  9997,2 54059  53.2191  27.8788 0001102  79.1154 280.9962 15.08843820 16368,6917.869,95.437,540.496,538.971,0.0
54059.0,STARLINK-5173,PAYLOAD,2023-02-02 02:42:44,15.08836712,0.0001177,53.2181,24.0121,85.2232,274.8894,2.9021e-05,1.74e-06,0.0,0 STARLINK-5173,1 54059U 22136J   23033.11301137  .00000174  00000-0  29021-4 0  9995,2 54059  53.2181  24.0121 0001177  85.2232 274.8894 15.08836712 16496,6917.89,95.438,540.57,538.941,0.0
54059.0,STARLINK-5173,PAYLOAD,2023-02-02 09:04:16,15.08845567,0.0001239,53.2198,22.8229,92.0108,268.1026,4.3156e-06,-2.19e-06,0.0,0 STARLINK-5173,1 54059U 22136J   23033.37796638 -.00000219  00000-0  43156-5 0  9994,2 54059  53.2198  22.8229 0001239  92.0108 268.1026 15.08845567 16059,6917.863,95.437,540.585,538.871,0.0
54059.0,STARLINK-5173,PAYLOAD,2023-02-02 23:22:45,15.08786055,0.00015,53.22,20.1464,89.2335,270.8829,0.00078475,0.00012205,0.0,0 STARLINK-5173,1 54059U 22136J   23033.97413842  .00012205  00000-0  78475-3 0  9990,2 54059  53.2200  20.1464 0001500  89.2335 270.8829 15.08786055 16626,6918.045,95.441,540.948,538.873,0.0
54059.0,STARLINK-5173,PAYLOAD,2023-02-03 07:19:39,15.08849623,0.0001186,53.2188,18.6602,88.7321,271.3807,0.00011799,1.591e-05,0.0,0 STARLINK-5173,1 54059U 22136J   23034.30532163  .00001591  00000-0  11799-3 0  9998,2 54059  53.2188  18.6602 0001186  88.7321 271.3807 15.08849623 16674,6917.851,95.437,540.536,538.896,0.0
54059.0,STARLINK-5173,PAYLOAD,2023-02-04 08:45:50,15.08846304,0.0001163,53.2193,13.9033,95.6619,264.4506,0.00012517,1.705e-05,0.0,0 STARLINK-5173,1 54059U 22136J   23035.36516583  .00001705  00000-0  12517-3 0  9999,2 54059  53.2193  13.9033 0001163  95.6619 264.4506 15.08846304 16838,6917.861,95.437,540.531,538.922,0.0
54059.0,STARLINK-5173,PAYLOAD,2023-02-05 05:25:51,15.08832221,0.000123,53.219,10.0403,103.9332,256.1797,-9.1223e-05,-1.739e-05,0.0,0 STARLINK-5173,1 54059U 22136J   23036.22629553 -.00001739  00000-0 -91223-4 0  9998,2 54059  53.2190  10.0403 0001230 103.9332 256.1797 15.08832221 16961,6917.904,95.438,540.62,538.918,0.0
54059.0,STARLINK-5173,PAYLOAD,2023-02-05 07:01:14,15.08834601,0.0001171,53.2191,9.7415,92.7935,267.3191,-5.4955e-05,-1.162e-05,0.0,0 STARLINK-5173,1 54059U 22136J   23036.29253466 -.00001162  00000-0 -54955-4 0  9992,2 54059  53.2191   9.7415 0001171  92.7935 267.3191 15.08834601 16492,6917.897,95.438,540.572,538.952,0.0
54059.0,STARLINK-5173,PAYLOAD,2023-02-06 05:16:38,15.08845708,0.00012,53.2192,5.5786,94.266,265.8469,0.00015224,2.136e-05,0.0,0 STARLINK-5173,1 54059U 22136J   23037.21989435  .00002136  00000-0  15224-3 0  9992,2 54059  53.2192   5.5786 0001200  94.2660 265.8469 15.08845708 17114,6917.863,95.437,540.558,538.898,0.0
54059.0,STARLINK-5173,PAYLOAD,2023-02-06 21:10:30,15.08848923,0.0001202,53.2188,2.605,89.7914,270.3216,0.00034792,5.255e-05,0.0,0 STARLINK-5173,1 54059U 22136J   23037.88229381  .00005255  00000-0  34792-3 0  9998,2 54059  53.2188   2.6050 0001202  89.7914 270.3216 15.08848923 16734,6917.853,95.437,540.55,538.887,0.0
54059.0,STARLINK-5173,PAYLOAD,2023-02-07 06:42:48,15.08877057,0.0001201,53.218,0.8198,91.9792,268.1338,0.0010127,0.00015882,0.0,0 STARLINK-5173,1 54059U 22136J   23038.27972430  .00015882  00000-0  10127-2 0  9994,2 54059  53.2180   0.8198 0001201  91.9792 268.1338 15.08877057 17277,6917.767,95.435,540.463,538.801,0.0
54059.0,STARLINK-5173,PAYLOAD,2023-02-07 16:15:07,15.08850207,0.0001146,53.2182,359.0359,112.3105,247.8008,-9.239e-06,-4.35e-06,0.0,0 STARLINK-5173,1 54059U 22136J   23038.67716577 -.00000435  00000-0 -92390-5 0  9991,2 54059  53.2182 359.0359 0001146 112.3105 247.8008 15.08850207 17334,6917.849,95.437,540.507,538.921,0.0
54059.0,STARLINK-5173,PAYLOAD,2023-02-08 06:33:35,15.08856048,0.000151,53.219,356.3566,104.6488,255.4671,0.0004211,6.423e-05,0.0,0 STARLINK-5173,1 54059U 22136J   23039.27332337  .00006423  00000-0  42110-3 0  9990,2 54059  53.2190 356.3566 0001510 104.6488 255.4671 15.08856048 16942,6917.831,95.437,540.741,538.652,0.0
54059.0,STARLINK-5173,PAYLOAD,2023-02-09 06:24:22,15.08867684,9.55e-05,53.2184,351.8992,84.559,275.5511,0.0016272,0.00025723,0.0,0 STARLINK-5173,1 54059U 22136J   23040.26693035  .00025723  00000-0  16272-2 0  9999,2 54059  53.2184 351.8992 0000955  84.5590 275.5511 15.08867684 17574,6917.796,95.436,540.321,539.0,0.0
54059.0,STARLINK-5173,PAYLOAD,2023-02-10 01:29:01,15.08857032,7.08e-05,53.2175,348.3316,123.5045,236.6014,0.0024905,0.0003959,0.0,0 STARLINK-5173,1 54059U 22136J   23041.06181891  .00039590  00000-0  24905-2 0  9999,2 54059  53.2175 348.3316 0000708 123.5045 236.6014 15.08857032 17213,6917.828,95.436,540.183,539.204,0.0
54059.0,STARLINK-5173,PAYLOAD,2023-02-10 03:04:24,15.08864257,6.7e-05,53.2175,348.0342,130.3899,229.7151,0.0029872,0.00047606,0.0,0 STARLINK-5173,1 54059U 22136J   23041.12805823  .00047606  00000-0  29872-2 0  9999,2 54059  53.2175 348.0342 0000670 130.3899 229.7151 15.08864257 17706,6917.806,95.436,540.135,539.208,0.0
54059.0,STARLINK-5173,PAYLOAD,2023-02-11 02:55:11,15.08858263,7.14e-05,53.2178,343.5747,134.868,225.237,0.0017434,0.00027581,0.0,0 STARLINK-5173,1 54059U 22136J   23042.12166325  .00027581  00000-0  17434-2 0  9998,2 54059  53.2178 343.5747 0000714 134.8680 225.2370 15.08858263 17854,6917.825,95.436,540.183,539.196,0.0
54059.0,STARLINK-5173,PAYLOAD,2023-02-11 07:41:20,15.08883,6.98e-05,53.2184,342.6808,127.5662,232.5393,0.0023638,0.00037577,0.0,0 STARLINK-5173,1 54059U 22136J   23042.32037778  .00037577  00000-0  23638-2 0  9998,2 54059  53.2184 342.6808 0000698 127.5662 232.5393 15.08883000 17885,6917.749,95.435,540.097,539.131,0.0
54059.0,STARLINK-5173,PAYLOAD,2023-02-11 20:24:26,15.08843081,6.93e-05,53.2182,340.3041,110.9135,249.1931,0.0010609,0.00016638,0.0,0 STARLINK-5173,1 54059U 22136J   23042.85030333  .00016638  00000-0  10609-2 0  9995,2 54059  53.2182 340.3041 0000693 110.9135 249.1931 15.08843081 17969,6917.871,95.437,540.215,539.257,0.0
54059.0,STARLINK-5173,PAYLOAD,2023-02-12 12:18:17,15.08857821,0.0001291,53.2181,337.331,99.51,260.6038,0.0011989,0.00018853,0.0,0 STARLINK-5173,1 54059U 22136J   23043.51270123  .00018853  00000-0  11989-2 0  9995,2 54059  53.2181 337.3310 0001291  99.5100 260.6038 15.08857821 17583,6917.826,95.436,540.584,538.798,0.0
54059.0,STARLINK-5173,PAYLOAD,2023-02-13 04:12:09,15.08848549,8.04e-05,53.2173,334.3557,67.0002,293.1075,0.0024396,0.00038761,0.0,0 STARLINK-5173,1 54059U 22136J   23044.17510626  .00038761  00000-0  24396-2 0  9999,2 54059  53.2173 334.3557 0000804  67.0002 293.1075 15.08848549 18168,6917.854,95.437,540.275,539.163,0.0
54059.0,STARLINK-5173,PAYLOAD,2023-02-13 12:09:05,15.08843775,0.0001214,53.217,332.8695,81.5112,278.6018,0.0020709,0.00032828,0.0,0 STARLINK-5173,1 54059U 22136J   23044.50630895  .00032828  00000-0  20709-2 0  9999,2 54059  53.2170 332.8695 0001214  81.5112 278.6018 15.08843775 18217,6917.869,95.437,540.574,538.894,0.0
54059.0,STARLINK-5173,PAYLOAD,2023-02-13 21:41:23,15.08852109,8.4e-05,53.2166,331.085,84.6383,275.4705,0.00089181,0.00013938,0.0,0 STARLINK-5173,1 54059U 22136J   23044.90374610  .00013938  00000-0  89181-3 0  9994,2 54059  53.2166 331.0850 0000840  84.6383 275.4705 15.08852109 18279,6917.843,95.437,540.289,539.127,0.0
54059.0,STARLINK-5173,PAYLOAD,2023-02-14 11:59:51,15.08848882,0.0001662,53.2166,328.409,73.2646,286.8529,0.0004136,6.302e-05,0.0,0 STARLINK-5173,1 54059U 22136J   23045.49990567  .00006302  00000-0  41360-3 0  9998,2 54059  53.2166 328.4090 0001662  73.2646 286.8529 15.08848882 17883,6917.853,95.437,540.868,538.568,0.0
54059.0,STARLINK-5173,PAYLOAD,2023-02-14 18:21:24,15.08855094,0.0002181,53.2158,327.2209,74.0641,286.0592,0.00061496,9.517e-05,0.0,0 STARLINK-5173,1 54059U 22136J   23045.76486644  .00009517  00000-0  61496-3 0  9997,2 54059  53.2158 327.2209 0002181  74.0641 286.0592 15.08855094 18408,6917.834,95.437,541.208,538.19,0.0
54059.0,STARLINK-5173,PAYLOAD,2023-02-15 11:50:38,15.08866921,0.0001114,53.2165,323.9484,80.4546,279.6572,0.0023014,0.00036556,0.0,0 STARLINK-5173,1 54059U 22136J   23046.49350537  .00036556  00000-0  23014-2 0  9995,2 54059  53.2165 323.9484 0001114  80.4546 279.6572 15.08866921 18513,6917.798,95.436,540.434,538.892,0.0
54059.0,STARLINK-5173,PAYLOAD,2023-02-15 18:12:11,15.08871268,0.0001229,53.217,322.7584,94.8419,265.2714,0.002362,0.00037536,0.0,0 STARLINK-5173,1 54059U 22136J   23046.75846345  .00037536  00000-0  23620-2 0  9993,2 54059  53.2170 322.7584 0001229  94.8419 265.2714 15.08871268 18072,6917.785,95.436,540.5,538.8,0.0
